STARLETTE               
1 07646U 75010A   23029.17382725 -.00000130  00000+0  91121-5 0  9990
2 07646  49.8254 299.3018 0205646 303.1965  54.9358 13.82316148423683
LAGEOS 1                
1 08820U 76039A   23028.41956757 -.00000015  00000+0  00000+0 0  9997
2 08820 109.8400 116.0768 0045109 207.2874 166.1979  6.38664945834229
AJISAI (EGS)            
1 16908U 86061A   23029.50066980 -.00000092  00000+0  40888-4 0  9998
2 16908  50.0117 343.9731 0011268 277.9866 203.6967 12.44498536326991
COSMOS 1989 (ETALON 1)  
1 19751U 89001C   23029.41066858 -.00000044  00000+0  00000+0 0  9992
2 19751  64.3638 114.6105 0023983 214.1131 112.1390  2.13156210265114
COSMOS 2024 (ETALON 2)  
1 20026U 89039C   23029.29429111 -.00000078  00000+0  00000+0 0  9998
2 20026  65.5057 352.7262 0018669 218.7934 325.6977  2.13204278262166
LAGEOS 2                
1 22195U 92070B   23029.13067369 -.00000009  00000+0  00000+0 0  9996
2 22195  52.6759 327.1925 0138514   7.4425 102.3153  6.47293461715660
STELLA                  
1 22824U 93061B   23028.91644876 -.00000030  00000+0  65743-5 0  9990
2 22824  98.9466  60.3239 0005748 215.3720 274.6605 14.27397889528541
LARES                   
1 38077U 12006A   23028.98605974 -.00000012  00000+0  16621-3 0  9999
2 38077  69.4926 242.0761 0007720 143.8246 216.3293 12.54931967502201
